$$SOE
2460721.500000000, A.D. 2025-Feb-15 00:00:00.0000, -1.751744259289230E+08, 1.938154258878060E+08, -4.923294014193664E+07,
2460728.500000000, A.D. 2025-Feb-22 00:00:00.0000, -1.840746684969164E+08, 1.838716261098078E+08, -5.351231677204901E+07,
2460735.500000000, A.D. 2025-Mar-01 00:00:00.0000, -1.924981803114648E+08, 1.734516957087725E+08, -5.765310034012662E+07,
2460742.500000000, A.D. 2025-Mar-08 00:00:00.0000, -2.004221865370802E+08, 1.625817441793676E+08, -6.164428103068943E+07,
2460749.500000000, A.D. 2025-Mar-15 00:00:00.0000, -2.078254310443153E+08, 1.512894051527981E+08, -6.547529066511053E+07,
2460756.500000000, A.D. 2025-Mar-22 00:00:00.0000, -2.146882793462476E+08, 1.396037227702930E+08, -6.913605096480823E+07,
2460763.500000000, A.D. 2025-Mar-29 00:00:00.0000, -2.209928101372249E+08, 1.275550258939837E+08, -7.261701919888425E+07,
2460770.500000000, A.D. 2025-Apr-05 00:00:00.0000, -2.267228941350662E+08, 1.151747944698011E+08, -7.590923051920047E+07,
2460777.500000000, A.D. 2025-Apr-12 00:00:00.0000, -2.318642613527238E+08, 1.024955194529675E+08, -7.900433638035342E+07,
2460784.500000000, A.D. 2025-Apr-19 00:00:00.0000, -2.364045563507223E+08, 8.955055683456741E+07, -8.189463873517874E+07,
2460791.500000000, A.D. 2025-Apr-26 00:00:00.0000, -2.403333807396936E+08, 7.637397705424839E+07, -8.457311973617442E+07,
2460798.500000000, A.D. 2025-May-03 00:00:00.0000, -2.436423225547550E+08, 6.300041134949650E+07, -8.703346670841014E+07,
2460805.500000000, A.D. 2025-May-10 00:00:00.0000, -2.463249724031424E+08, 4.946489659964651E+07, -8.927009222667086E+07,
2460812.500000000, A.D. 2025-May-17 00:00:00.0000, -2.483769264672603E+08, 3.580272016123882E+07, -9.127814920894116E+07,
2460819.500000000, A.D. 2025-May-24 00:00:00.0000, -2.497957764884106E+08, 2.204926613620276E+07, -9.305354102517597E+07,
2460826.500000000, A.D. 2025-May-31 00:00:00.0000, -2.505810867804840E+08, 8.239864810486373E+06, -9.459292668298446E+07,
2460833.500000000, A.D. 2025-Jun-07 00:00:00.0000, -2.507343592936231E+08, -5.590352200212866E+06, -9.589372106956060E+07,
2460840.500000000, A.D. 2025-Jun-14 00:00:00.0000, -2.502589898479006E+08, -1.940659055018191E+07, -9.695409026538856E+07,
2460847.500000000, A.D. 2025-Jun-21 00:00:00.0000, -2.491602151962980E+08, -3.317452769674700E+07, -9.777294254819559E+07,
2460854.500000000, A.D. 2025-Jun-28 00:00:00.0000, -2.474450487556025E+08, -4.686044065437701E+07, -9.834991551579106E+07,
2460861.500000000, A.D. 2025-Jul-05 00:00:00.0000, -2.451222075472184E+08, -6.043132401814859E+07, -9.868535932657014E+07,
2460868.500000000, A.D. 2025-Jul-12 00:00:00.0000, -2.422020326093081E+08, -7.385499843514726E+07, -9.878031635981442E+07,
2460875.500000000, A.D. 2025-Jul-19 00:00:00.0000, -2.386964037934698E+08, -8.710020963237128E+07, -9.863649773974115E+07,
2460882.500000000, A.D. 2025-Jul-26 00:00:00.0000, -2.346186498447287E+08, -1.001367177384859E+08, -9.825625714416516E+07,
2460889.500000000, A.D. 2025-Aug-02 00:00:00.0000, -2.299834547887348E+08, -1.129353767035134E+08, -9.764256230149579E+07,
2460896.500000000, A.D. 2025-Aug-09 00:00:00.0000, -2.248067616561075E+08, -1.254682037970015E+08, -9.679896457620054E+07,
2460903.500000000, A.D. 2025-Aug-16 00:00:00.0000, -2.191056744715334E+08, -1.377084393424195E+08, -9.572956704486704E+07,
2460910.500000000, A.D. 2025-Aug-23 00:00:00.0000, -2.128983591589593E+08, -1.496305968803172E+08, -9.443899146579421E+07,
2460917.500000000, A.D. 2025-Aug-30 00:00:00.0000, -2.062039439070425E+08, -1.612105033547664E+08, -9.293234447314398E+07,
2460924.500000000, A.D. 2025-Sep-06 00:00:00.0000, -1.990424212062511E+08, -1.724253287160106E+08, -9.121518311986336E+07,
2460931.500000000, A.D. 2025-Sep-13 00:00:00.0000, -1.914345539372152E+08, -1.832536078879411E+08, -8.929348013068038E+07,
2460938.500000000, A.D. 2025-Sep-20 00:00:00.0000, -1.834017828644786E+08, -1.936752572704490E+08, -8.717358958813003E+07,
2460945.500000000, A.D. 2025-Sep-27 00:00:00.0000, -1.749661350224380E+08, -2.036715832312962E+08, -8.486221315425186E+07,
2460952.500000000, A.D. 2025-Oct-04 00:00:00.0000, -1.661501354689616E+08, -2.132252826392117E+08, -8.236636682501522E+07,
2460959.500000000, A.D. 2025-Oct-11 00:00:00.0000, -1.569767231535254E+08, -2.223204369868781E+08, -7.969334845323679E+07,
2460966.500000000, A.D. 2025-Oct-18 00:00:00.0000, -1.474691709069499E+08, -2.309425009910733E+08, -7.685070625174186E+07,
2460973.500000000, A.D. 2025-Oct-25 00:00:00.0000, -1.376510096297550E+08, -2.390782862729129E+08, -7.384620842763364E+07,
2460980.500000000, A.D. 2025-Nov-01 00:00:00.0000, -1.275459567928080E+08, -2.467159407074187E+08, -7.068781406544428E+07,
2460987.500000000, A.D. 2025-Nov-08 00:00:00.0000, -1.171778493094717E+08, -2.538449240579913E+08, -6.738364535392855E+07,
2460994.500000000, A.D. 2025-Nov-15 00:00:00.0000, -1.065705806676273E+08, -2.604559805125516E+08, -6.394196123867737E+07,
2461001.500000000, A.D. 2025-Nov-22 00:00:00.0000, -9.574804190390609E+07, -2.665411084315754E+08, -6.037113256237315E+07,
2461008.500000000, A.D. 2025-Nov-29 00:00:00.0000, -8.473406651572822E+07, -2.720935266727273E+08, -5.667961861069836E+07,
2461015.500000000, A.D. 2025-Dec-06 00:00:00.0000, -7.355238149542651E+07, -2.771076380932341E+08, -5.287594487400584E+07,
2461022.500000000, A.D. 2025-Dec-13 00:00:00.0000, -6.222656393094207E+07, -2.815789940304145E+08, -4.896868233233917E+07,
2461029.500000000, A.D. 2025-Dec-20 00:00:00.0000, -5.077999953850883E+07, -2.855042591312522E+08, -4.496642847763792E+07,
2461036.500000000, A.D. 2025-Dec-27 00:00:00.0000, -3.923584404073998E+07, -2.888811742864733E+08, -4.087778972269404E+07,
2461043.500000000, A.D. 2026-Jan-03 00:00:00.0000, -2.761698866080587E+07, -2.917085185827304E+08, -3.671136506145450E+07,
2461050.500000000, A.D. 2026-Jan-10 00:00:00.0000, -1.594602940731176E+07, -2.939860712202176E+08, -3.247573099454530E+07,
2461057.500000000, A.D. 2026-Jan-17 00:00:00.0000, -4.245239693077817E+06, -2.957145737426650E+08, -2.817942770174584E+07,
2461064.500000000, A.D. 2026-Jan-24 00:00:00.0000, 7.463454005511426E+06, -2.968956927944553E+08, -2.383094641721973E+07,
2461071.500000000, A.D. 2026-Jan-31 00:00:00.0000, 1.915849367830740E+07, -2.975319836185011E+08, -1.943871795150669E+07,
2461078.500000000, A.D. 2026-Feb-07 00:00:00.0000, 3.081870876522702E+07, -2.976268545231224E+08, -1.501110230284947E+07,
2461085.500000000, A.D. 2026-Feb-14 00:00:00.0000, 4.242333305027682E+07, -2.971845324702590E+08, -1.055637930974038E+07,
2461092.500000000, A.D. 2026-Feb-21 00:00:00.0000, 5.395202005659261E+07, -2.962100293158481E+08, -6.082740260064647E+06,
2461099.500000000, A.D. 2026-Feb-28 00:00:00.0000, 6.538485605847017E+07, -2.947091076334445E+08, -1.598280191992760E+06,
2461106.500000000, A.D. 2026-Mar-07 00:00:00.0000, 7.670236884730758E+07, -2.926882481345122E+08, 2.889009211323991E+06,
2461113.500000000, A.D. 2026-Mar-14 00:00:00.0000, 8.788553521748064E+07, -2.901546210654771E+08, 7.371245753863111E+06,
2461120.500000000, A.D. 2026-Mar-21 00:00:00.0000, 9.891578913801651E+07, -2.871160587216033E+08, 1.184066202314794E+07,
2461127.500000000, A.D. 2026-Mar-28 00:00:00.0000, 1.097750287730755E+08, -2.835810280746793E+08, 1.628961018243738E+07,
2461134.500000000, A.D. 2026-Apr-04 00:00:00.0000, 1.204456219103858E+08, -2.795586044910067E+08, 2.071056629651217E+07,
2461141.500000000, A.D. 2026-Apr-11 00:00:00.0000, 1.309104102259743E+08, -2.750584468985085E+08, 2.509613419581982E+07,
2461148.500000000, A.D. 2026-Apr-18 00:00:00.0000, 1.411527126899047E+08, -2.700907743987441E+08, 2.943904892093392E+07,
2461155.500000000, A.D. 2026-Apr-25 00:00:00.0000, 1.511563282944438E+08, -2.646663442883623E+08, 3.373217979858299E+07,
2461162.500000000, A.D. 2026-May-02 00:00:00.0000, 1.609055382628181E+08, -2.587964314882962E+08, 3.796853319452585E+07,
2461169.500000000, A.D. 2026-May-09 00:00:00.0000, 1.703851079866490E+08, -2.524928094084733E+08, 4.214125497427601E+07,
2461176.500000000, A.D. 2026-May-16 00:00:00.0000, 1.795802891890243E+08, -2.457677320704146E+08, 4.624363269598509E+07,
2461183.500000000, A.D. 2026-May-23 00:00:00.0000, 1.884768224741352E+08, -2.386339164249962E+08, 5.026909766134610E+07,
2461190.500000000, A.D. 2026-May-30 00:00:00.0000, 1.970609382826105E+08, -2.311045244986517E+08, 5.421122708486389E+07,
2461197.500000000, A.D. 2026-Jun-06 00:00:00.0000, 2.053193560244803E+08, -2.231931485842705E+08, 5.806374618181559E+07,
2461204.500000000, A.D. 2026-Jun-13 00:00:00.0000, 2.132392851423474E+08, -2.149137992152229E+08, 6.182052989117396E+07,
2461211.500000000, A.D. 2026-Jun-20 00:00:00.0000, 2.208084276879108E+08, -2.062808929350440E+08, 6.547560455492818E+07,
2461218.500000000, A.D. 2026-Jun-27 00:00:00.0000, 2.280149807911959E+08, -1.973092401403582E+08, 6.902314971708916E+07,
2461225.500000000, A.D. 2026-Jul-04 00:00:00.0000, 2.348476390937494E+08, -1.880140337059317E+08, 7.245750001231082E+07,
2461232.500000000, A.D. 2026-Jul-11 00:00:00.0000, 2.412955974663198E+08, -1.784108384545601E+08, 7.577314714173590E+07,
2461239.500000000, A.D. 2026-Jul-18 00:00:00.0000, 2.473485541661152E+08, -1.685155813746424E+08, 7.896474196032597E+07,
2461246.500000000, A.D. 2026-Jul-25 00:00:00.0000, 2.529967145158072E+08, -1.583445425097865E+08, 8.202709670333754E+07,
2461253.500000000, A.D. 2026-Aug-01 00:00:00.0000, 2.582307952040779E+08, -1.479143464937712E+08, 8.495518737115158E+07,
2461260.500000000, A.D. 2026-Aug-08 00:00:00.0000, 2.630420294683679E+08, -1.372419546873340E+08, 8.774415627390826E+07,
2461267.500000000, A.D. 2026-Aug-15 00:00:00.0000, 2.674221736195961E+08, -1.263446573815776E+08, 9.038931475823869E+07,
2461274.500000000, A.D. 2026-Aug-22 00:00:00.0000, 2.713635141935829E+08, -1.152400647634909E+08, 9.288614631286265E+07,
2461281.500000000, A.D. 2026-Aug-29 00:00:00.0000, 2.748588734785073E+08, -1.039460979366287E+08, 9.523031017591305E+07,
$$EOE